[{"OBJECT_NAME":"STARLINK-32241","OBJECT_ID":"2024-144N","EPOCH":"2026-03-09T17:01:46.378848","MEAN_MOTION":15.30188966,"ECCENTRICITY":0.00011018,"INCLINATION":53.1599,"RA_OF_ASC_NODE":216.9355,"ARG_OF_PERICENTER":74.4401,"MEAN_ANOMALY":285.6722,"EPHEMERIS_TYPE":0,"CLASSIFICATION_TYPE":"U","NORAD_CAT_ID":60437,"ELEMENT_SET_NO":999,"REV_AT_EPOCH":8931,"BSTAR":6.377078e-6,"MEAN_MOTION_DOT":-1.7e-6,"MEAN_MOTION_DDOT":0},{"OBJECT_NAME":"OBJECT H","OBJECT_ID":"2024-205H","EPOCH":"2026-03-09T23:10:36.271776","MEAN_MOTION":15.29110994,"ECCENTRICITY":0.00105089,"INCLINATION":97.4168,"RA_OF_ASC_NODE":147.1265,"ARG_OF_PERICENTER":38.7838,"MEAN_ANOMALY":321.4154,"EPHEMERIS_TYPE":0,"CLASSIFICATION_TYPE":"U","NORAD_CAT_ID":61901,"ELEMENT_SET_NO":999,"REV_AT_EPOCH":7354,"BSTAR":0.00059497566,"MEAN_MOTION_DOT":0.00016783,"MEAN_MOTION_DDOT":0}]
